{"type":"FeatureCollection","features":[{"type":"Feature","geometry":{"type":"Polygon","coordinates":[[[99.81058662240596,19.09436248365443],[99.8106147271213,19.09414701417016],[99.81088640603625,19.093772284632305],[99.8105116764984,19.093603656340267],[99.8103524164448,19.09378165287075],[99.81015568343743,19.093847230539875],[99.80983129693693,19.09377361247831],[99.80966735276417,19.093656509497645],[99.8094893562336,19.093506617682646],[99.80946243379239,19.093294504471537],[99.80919542775241,19.093089731071696],[99.80920949135434,19.092975984364355],[99.80913454544677,19.092854197264554],[99.8091439136852,19.09270430544941],[99.8089003394856,19.092657464257172],[99.80865676528599,19.092535677157365],[99.80846003227862,19.09226399824242],[99.80789793797183,19.09173937688942],[99.80777615087202,19.091786218081648],[99.80739205309571,19.091861163989226],[99.80720468832679,19.09198295108903],[99.80712037418077,19.092123474665723],[99.80708290122698,19.092273366480875],[99.80710163770388,19.092385785342227],[99.80701732355786,19.092563781872713],[99.80697048236563,19.092844829026106],[99.8069236411734,19.093144612656392],[99.80694237765029,19.093406923332896],[99.8069236411734,19.09372544344007],[99.8068861682196,19.093959649401235],[99.80659575282776,19.094184487123954],[99.80636154686661,19.094287537746865],[99.80642712453573,19.09464353080783],[99.80644586101262,19.094877736768996],[99.80632407391282,19.094952682676563],[99.80607113147477,19.09500889210724],[99.80590250318272,19.095252466306846],[99.80564019250623,19.095271202783742],[99.80535914535284,19.095542881698687],[99.80525609472993,19.09574898294451],[99.80508746643788,19.095795824136744],[99.8049094699074,19.09599255714412],[99.80483452399983,19.096282972535956],[99.80482515576138,19.096423496112653],[99.80446916270041,19.096835698604302],[99.80422558850081,19.096920012750328],[99.80397264606275,19.09707927280391],[99.80362602124023,19.097126113996143],[99.80344450037559,19.097445961949592],[99.80249830829251,19.09777853441445],[99.80234373235807,19.09795653094503],[99.80239057355035,19.09814857983312],[99.80259199067685,19.098186052786904],[99.80283088075737,19.09815794807156],[99.80319624205681,19.098157948071552],[99.80355575945191,19.098175356702153],[99.80381807012841,19.098301827921176],[99.80406632844725,19.098428299140206],[99.80428648205074,19.098428299140206],[99.80465652746938,19.098367405590306],[99.80492820638432,19.09837677382875],[99.80524204237229,19.09840487854409],[99.80542472302199,19.098479824451662],[99.80605589680725,19.09843431109966],[99.80623389348993,19.098406206415373],[99.80648333396644,19.098372089709528],[99.80699154965765,19.098232893979162],[99.80717658361148,19.09831119615962],[99.80737800073808,19.098311196159624],[99.8075044719571,19.098339300874965],[99.807565365507,19.09845640385555],[99.80766841612993,19.098572335806324],[99.80771525732216,19.09870349114457],[99.80788388561419,19.09875970057525],[99.80805719802545,19.098755016456025],[99.80824456279439,19.098600440521665],[99.8084694005171,19.0983662345605],[99.80846236309385,19.098040845090942],[99.80846704721309,19.097703588506832],[99.8085513613591,19.097406146936247],[99.80873171119356,19.09724790109595],[99.80884413005492,19.097126113996143],[99.80898465363161,19.09704179985012],[99.80910644073143,19.09696685394255],[99.809181386639,19.096910644511873],[99.80935938316948,19.0966951750276],[99.81058662240596,19.09436248365443]]]},"properties":{"name_en":"Mae Na Rua","name_th":"อ่างเก็บน้ำแม่นาเรือ","telemetry_code":"RES002"}},{"type":"Feature","geometry":{"type":"Polygon","coordinates":[[[99.84962113319637,19.065583704718904],[99.84954307384047,19.065392352869985],[99.8494512874183,19.065276950671826],[99.84954307384044,19.065162682328907],[99.84956868779707,19.065055458752212],[99.84963342900926,19.064991163637107],[99.84963298291215,19.06485589110716],[99.84973433275245,19.064612121727514],[99.84941093334612,19.064646880874104],[99.84928793804177,19.06471388979639],[99.84917204326582,19.06467732764917],[99.84909098198581,19.06459316220212],[99.84896351223392,19.064406531647247],[99.84886748778973,19.06428054966183],[99.8488160502048,19.064143923572544],[99.84867543311263,19.064033816563157],[99.84862927095072,19.063959486378128],[99.84840683859551,19.06410759433367],[99.8483037246648,19.064034432285755],[99.84814280298686,19.06402191134143],[99.84812572813416,19.063872830172496],[99.84790005959941,19.06368370885892],[99.8479289951269,19.063578316176237],[99.84793133718641,19.063489317911092],[99.84792431100766,19.06335113639407],[99.8479500736633,19.06319890251928],[99.84793133718642,19.063063648576648],[99.8479149427692,19.06302149150361],[99.84790323247103,19.06290673058271],[99.84791025864996,19.062770891125144],[99.84793133718644,19.062677208740634],[99.84782686519509,19.06262885630095],[99.84781375369428,19.06254500250059],[99.84773915808748,19.06246970629229],[99.847711183583,19.06231653156039],[99.84762404686573,19.062256929168207],[99.84764044128312,19.06217132386457],[99.84771352564246,19.062101062076188],[99.84774631447708,19.061993327333997],[99.84775802477522,19.061892618770752],[99.84765029003303,19.061829383161317],[99.84763857973508,19.06174975313447],[99.84762686943692,19.061709938121133],[99.84754255529101,19.061719306359418],[99.84743716260836,19.061677149286535],[99.8473083493297,19.06167949134608],[99.84722637724339,19.061716964299883],[99.8471256686799,19.06182469904208],[99.84707882748785,19.061899644949655],[99.84704761860546,19.061955817205575],[99.84702454188827,19.06201557690033],[99.84702730217634,19.062123311642516],[99.84706945924938,19.06229662405385],[99.84708819572627,19.062474620584233],[99.84700856569948,19.06258703944564],[99.84687272624207,19.062671353591746],[99.84686804212267,19.062671353591742],[99.84682120093045,19.062750983618393],[99.84676030738063,19.062811877168333],[99.8466713091154,19.062788456572218],[99.84654483789626,19.062708826545542],[99.84636684136586,19.062760351856834],[99.84634810488895,19.06286340247984],[99.84645115551179,19.063003926056588],[99.84663383616157,19.063111660798608],[99.84666662499615,19.063247500256157],[99.84656825849235,19.06332713028297],[99.84647926022711,19.06340676030983],[99.84657762673085,19.06351917917109],[99.84662446792312,19.063509810932572],[99.84676499149988,19.063458285621152],[99.84684462152654,19.063491074455747],[99.8469476721495,19.063580072720974],[99.84695235626873,19.063753385132408],[99.84691956743417,19.063893908708955],[99.84686335800343,19.063964170497332],[99.84672283442684,19.06400632757041],[99.84660573144619,19.06406253700106],[99.84653078553858,19.064179639981724],[99.84646520786958,19.064348268273704],[99.8465120490617,19.064432582419734],[99.84668067735379,19.064404477704386],[99.84682588504963,19.064348268273722],[99.84701324981864,19.064498160088704],[99.84728039331344,19.06461205668417],[99.84749316822565,19.064670352603162],[99.84761164604953,19.064970085100544],[99.84773811726848,19.065059083365785],[99.84791611379906,19.065255816373273],[99.84800511206419,19.065443181142168],[99.84798637558744,19.065602441195836],[99.84796763911038,19.06573359653415],[99.84796295499132,19.06590690894529],[99.84800511206419,19.066052116641114],[99.84808942621022,19.066192640217942],[99.8482112133101,19.06627695436399],[99.84962113319637,19.065583704718904]]]},"properties":{"name_en":"Huai Tham","name_th":"อ่างเก็บน้ำห้วยถ้ำ","telemetry_code":"RES005"}},{"type":"Feature","geometry":{"type":"Polygon","coordinates":[[[99.8257333366723,19.096913295838128],[99.82628054968265,19.095724693988736],[99.82599714559709,19.09564036663747],[99.82572460311566,19.095152455166026],[99.82472046767987,19.09498575656531],[99.82428229007178,19.094816520965754],[99.8238301616007,19.09442723658316],[99.8236989342666,19.093902004772076],[99.82353135800047,19.093829383897187],[99.82355920004666,19.0942572513355],[99.82336614017126,19.094233657602572],[99.82321112399542,19.094099838606486],[99.82304372905803,19.094063901502306],[99.82285036730164,19.093979166858542],[99.82294185585621,19.094272238397515],[99.8242601971267,19.095550320022777],[99.82370095422328,19.096910166846712],[99.82385518678784,19.09688502043517],[99.82400893509222,19.09676204938013],[99.82484422854421,19.096599342629705],[99.8257333366723,19.096913295838128]]]},"properties":{"name_en":"Phayao C.A.T.","name_th":"อ่างเก็บน้ำวิทยาลัยเกษตร","telemetry_code":"RES004"}},{"type":"Feature","geometry":{"type":"Polygon","coordinates":[[[99.87301261468184,19.037122306039116],[99.87415576280216,19.036884561566303],[99.8742444888507,19.03663957586244],[99.87416452534433,19.036101909677377],[99.87411079010356,19.035661945598935],[99.87380162463643,19.035553353851416],[99.87376132406825,19.035223380664682],[99.87395252895783,19.03490454052797],[99.87415774267974,19.034805743133518],[99.8743112048374,19.034646049036294],[99.87448275607194,19.034180474236017],[99.87483543028699,19.034081065665443],[99.87497552103503,19.033823608064818],[99.87491982508064,19.033833588664418],[99.87475410724998,19.033979315129482],[99.87459049224364,19.033959942648796],[99.87429546730402,19.03409585047015],[99.8741766982017,19.034270433034717],[99.87398937525684,19.03457420234485],[99.8736167540904,19.034624878227724],[99.8734638666689,19.034894623678394],[99.87329773735645,19.035091061869252],[99.87307870626132,19.035006499262433],[99.87266738242575,19.03503289961829],[99.87241086369964,19.035156394312036],[99.87220609534343,19.035340785770185],[99.87247681352763,19.03547401844222],[99.87282423235253,19.03552129022002],[99.87314721381739,19.035813242688217],[99.87323984008391,19.036314164711378],[99.87325448793713,19.036656487580107],[99.8730624489661,19.036816363224382],[99.87298606783958,19.03696346374905],[99.87301261468184,19.037122306039116]]]},"properties":{"name_en":"Huai Cham Tum","name_th":"อ่างเก็บน้ำห้วยจำตุ้ม","telemetry_code":""}},{"type":"Feature","geometry":{"type":"Polygon","coordinates":[[[99.85951687153978,19.048814734511655],[99.8603003233655,19.048627660345538],[99.86023350803039,19.048138839397044],[99.86034696952656,19.04769809153961],[99.86045463523178,19.047353366136154],[99.86001125269092,19.0474306330119],[99.85991821729374,19.046844107498615],[99.85964515981402,19.046258420212375],[99.8595568482499,19.04658899583221],[99.85918564220124,19.046920888216036],[99.85896735673283,19.046983045551492],[99.85877384523423,19.046861662688613],[99.85846523347142,19.046863098015326],[99.8583767747492,19.046865149106633],[99.85811804520519,19.046864712141446],[99.85780930772141,19.046841690323742],[99.85753952363963,19.046891856950996],[99.85815681025076,19.04690121689549],[99.85869795022735,19.04710658199246],[99.85903391607856,19.04742295510473],[99.85938299388967,19.047788179755962],[99.85957789213212,19.04817857828178],[99.85963165770664,19.04863077537415],[99.85951687153978,19.048814734511655]]]},"properties":{"name_en":"Huai So","name_th":"อ่างเก็บน้ำห้วยโซ้","telemetry_code":"RES006"}}]}