{"type":"FeatureCollection","features":[{"type":"Feature","geometry":{"type":"Polygon","coordinates":[[[99.76335137502272,19.10319906949598],[99.76333516852641,19.10321122436822],[99.7650692636304,19.103289015550452],[99.76813391208053,19.103363565433433],[99.76961923746633,19.103467287009746],[99.77237272118754,19.103681212760886],[99.77345207384104,19.10379789953424],[99.77975478025172,19.104112305562445],[99.78203827558025,19.10421602713876],[99.78466858992957,19.104274370525438],[99.7867576073025,19.10446560718176],[99.78785316645232,19.104562846159556],[99.78964398429335,19.10467629163364],[99.79349869943806,19.10489021738479],[99.79606742910146,19.105026351953697],[99.79857781537817,19.105149521325576],[99.80133373007381,19.105292138493013],[99.80233529154509,19.104478572378802],[99.803154529933,19.104064496398365],[99.80408397249575,19.10391215533315],[99.80503691447812,19.103445408239736],[99.80646551712688,19.10331899756861],[99.80717212036552,19.103085624021897],[99.80865744575132,19.10283928527816],[99.80990210466707,19.102994867642636],[99.81104223168171,19.103697419257195],[99.811654026917,19.104254112405062],[99.81188091786518,19.10444859036065],[99.81197491554371,19.104597690126596],[99.81211753271116,19.104824581074787],[99.81233469976155,19.104925061351835],[99.81300159708427,19.10506362689519],[99.81373656169141,19.105607354846015],[99.8141903435878,19.10582128059717],[99.81497068638458,19.10622563267983],[99.81557680934617,19.106248321774647],[99.81612783022034,19.10658217559841],[99.8166626445982,19.106715068868063],[99.81673071188266,19.10684796213771],[99.81683443345896,19.10695168371403],[99.81695112023232,19.10692575331995],[99.81726390561089,19.1069443907907],[99.81739355758128,19.106996251578842],[99.81762693112799,19.107018940673665],[99.81773713530282,19.107028664571445],[99.81791540676211,19.107067560162566],[99.8180126457399,19.107161557841103],[99.81813257381252,19.10726852071667],[99.81822333019178,19.10744679217596],[99.81841780814737,19.107608857138953],[99.81858554538407,19.107740940083787],[99.8191398075575,19.108191480680894],[99.81956765905979,19.108547213274658],[99.81988449606244,19.109084458626974],[99.82020214338989,19.109259488786996],[99.8207823359574,19.109475845512595],[99.82119641193783,19.109899645390815],[99.82130337481341,19.110214051419003],[99.82142330288602,19.110628937724265],[99.82153350706086,19.11076183099392],[99.8217636393083,19.110933619854695],[99.821909497775,19.111121615211765],[99.8220456323439,19.111283680174736],[99.82223362770097,19.111675877385185],[99.82263797978364,19.11203971322709],[99.82273521876142,19.112133710905628],[99.82291997281924,19.112302258467118],[99.82313389857038,19.112431910437518],[99.82330244613189,19.112555079809393],[99.82356499137194,19.11269769697683],[99.82379836491864,19.11280141855314],[99.82389236259718,19.112960242216875],[99.82410628834832,19.113148237573935],[99.82446526224135,19.113400248591393],[99.8245819490147,19.11341645508769],[99.82477642697029,19.113448868080297],[99.8249838701229,19.113510452766228],[99.82510055689626,19.113591485247714],[99.82513621118812,19.11372761981663],[99.82534932661446,19.113862944060728],[99.82577960909119,19.113972337910752],[99.82652510792094,19.113897788027778],[99.8267859616409,19.113948609868892],[99.82720871152918,19.114713157539203],[99.82728966363545,19.11489754844792],[99.8274290811518,19.115095431374357],[99.82746056252647,19.115288816961552],[99.82745156784799,19.115423737138656],[99.82744707050875,19.11558114401196],[99.82745156784799,19.115680085475173],[99.82736611840248,19.115801513634576],[99.82727617161774,19.11592743913321],[99.82710077538749,19.116206274165915],[99.82709178070903,19.116458125163195],[99.82729329584552,19.116650461424157],[99.82738405222479,19.117096950397183],[99.82747480860407,19.117689297836925],[99.82749425639962,19.11808716732106],[99.82750398029741,19.11859929260411],[99.82747804990332,19.11872246197598],[99.82744563691072,19.118763788541536],[99.82739701742183,19.11906522937271],[99.82735163923219,19.119615439922047],[99.82732570883812,19.11987474386284],[99.82734515663367,19.120143771701404],[99.82761094317297,19.120140530402146],[99.8280898451386,19.12020130476327],[99.82824866880235,19.12028557854402],[99.82835887297718,19.120447643507006],[99.82845287065571,19.120687499652234],[99.82850797274313,19.120875495009308],[99.8286635551076,19.12117612551565],[99.82882156844651,19.12149620381755],[99.82887667053393,19.12158047759831],[99.82896418561394,19.121658268780543],[99.82909383758434,19.12174902515982],[99.8292008004599,19.121839781539094],[99.82926886774436,19.12194026181614],[99.82928831553993,19.12203750079393],[99.82931748723325,19.122283029212866],[99.82936610672215,19.1223770268914],[99.82942445010883,19.122464541971414],[99.82958327377256,19.122610400438113],[99.82982880219149,19.12285673918185],[99.82995521286263,19.122905358670753],[99.83009783003006,19.12294749556113],[99.83026961889082,19.123031769341882],[99.83057997329495,19.12294749556113],[99.8322905689793,19.122383509489925],[99.83317463335241,19.122082068658756],[99.83347607418358,19.121965381885406],[99.833618691351,19.121965381885406],[99.8336835173362,19.121997794878006],[99.83374186072288,19.12207882735951],[99.83379372151104,19.12214689464396],[99.83381965190512,19.122237651023223],[99.83386503009476,19.12229923570917],[99.83394606257625,19.122344613898807],[99.83400116466366,19.122370544292885],[99.8340951623422,19.12246778327068],[99.83417295352443,19.122539091854385],[99.83426370990371,19.12264281343071],[99.83435446628297,19.122723845912205],[99.83443792973893,19.12274896598146],[99.83460323600117,19.122817033265914],[99.83476854226342,19.12288510055038],[99.83491115943085,19.122943443937057],[99.83497598541605,19.1229953047252],[99.83523853065608,19.1232926939323],[99.83542004341464,19.123445034997506],[99.8354556977065,19.12351958488048],[99.83548162810058,19.123613582559024],[99.83552376499095,19.123697856339774],[99.83558534967689,19.123736751930885],[99.83565017566208,19.123798336616826],[99.83575065593914,19.12387612779906],[99.83587706661027,19.123957160280554],[99.8359548577925,19.124044675360565],[99.83607478586512,19.124154879535396],[99.83622712693032,19.12424239461541],[99.8363235555833,19.124299117352464],[99.83643375975814,19.12437042593617],[99.83649534444407,19.124441734519895],[99.83657961822483,19.12452924959991],[99.83665416810781,19.124629729876958],[99.83671251149448,19.124726968854752],[99.83680650917302,19.124817725234024],[99.83687457645748,19.12492144681034],[99.83697181543526,19.1249895140948],[99.83712658747493,19.125085942747784],[99.83721086125567,19.12509890794481],[99.8372983763357,19.12511835574038],[99.83735996102163,19.125147527433718],[99.83739237401423,19.125215594718174],[99.83745395870017,19.12529014460115],[99.83754471507943,19.12533876409004],[99.83769705614465,19.12538414227968],[99.83789801669876,19.12544896826488],[99.83799525567655,19.125471657359693],[99.83813139024547,19.12551055295081],[99.83817676843509,19.125542965943414],[99.83826428351512,19.12563696362194],[99.83830642040549,19.125705030906406],[99.8383615224929,19.125776339490127],[99.83844255497439,19.125867095869392],[99.83854303525145,19.125935163153837],[99.8386435155285,19.12599674783978],[99.83873427190778,19.12607129772275],[99.83881854568854,19.12614584760573],[99.83898952422449,19.126319257116137],[99.83900897202005,19.126345187510214],[99.83901869591783,19.126400289597626],[99.83900897202005,19.126458632984303],[99.83903166111487,19.126510493772464],[99.83905110891043,19.12654614806432],[99.83909648710006,19.12655911326136],[99.83914510658896,19.12655263066284],[99.83918400218008,19.1265396654658],[99.83924234556676,19.126494287276163],[99.83929420635491,19.1264586329843],[99.8393428258438,19.126435943889486],[99.8394238583253,19.12644566778726],[99.83954054509866,19.126481322079123],[99.83970909266016,19.126529941568016],[99.8397706773461,19.126568837159127],[99.83995543140391,19.126575319757656],[99.84006563557874,19.126620697947303],[99.8401337028632,19.12668552393249],[99.84016287455654,19.126756832516207],[99.8401661158558,19.126805452005105],[99.84015639195802,19.126876760588818],[99.84014666806024,19.126935103975498],[99.84013046156394,19.127003171259954],[99.84011101376838,19.12703882555181],[99.8401174963669,19.127110134135524],[99.84014342676097,19.127155512325164],[99.84020501144691,19.127200890514803],[99.84027632003063,19.127239786105914],[99.84037680030768,19.127298129492594],[99.84043676434399,19.127311094689627],[99.84052103812475,19.127301370791848],[99.84059882930698,19.12730785339037],[99.84066041399291,19.12730785339038],[99.84074144647441,19.12732405988667],[99.84085165064924,19.127369438076304],[99.84094564832778,19.127405092368164],[99.84100399171446,19.12739536847039],[99.84106881769965,19.12737592067483],[99.84115309148041,19.127375920674826],[99.84126653695449,19.127421298864462],[99.84140915412193,19.127447229258536],[99.8417170775516,19.1274666770541],[99.84211899865983,19.127512055243745],[99.84218706594427,19.12752826174004],[99.8423069940169,19.127580122528197],[99.84236209610431,19.12763198331635],[99.84242368079025,19.127661155009676],[99.84253388496508,19.12768384410451],[99.84261815874584,19.127725980994878],[99.84267001953398,19.127771359184518],[99.84275105201549,19.12780701347637],[99.8428223605992,19.12780377217712],[99.84300711465701,19.127894528556386],[99.84310597428443,19.127952061618245],[99.84335231302818,19.127932613822697],[99.8434787236993,19.127916407326396],[99.84361809956748,19.12782565094712],[99.84381906012159,19.12774785976489],[99.84400057288013,19.127699240275987],[99.84414643134683,19.127666827283395],[99.84434739190094,19.12764089688931],[99.8444535444517,19.127637655590057],[99.84476795047989,19.12760848389671],[99.84497539363252,19.127589036101156],[99.84517959548589,19.12757282960486],[99.84542917552889,19.12751124491892],[99.8455547758752,19.127498279721895],[99.8457881494219,19.127475590627068],[99.84610579674937,19.127404282043347],[99.84636510069015,19.127329732160376],[99.84650447655832,19.12731352566408],[99.84658226774056,19.12728111267148],[99.84675405660133,19.127238975781104],[99.84703604963693,19.127193597591464],[99.84732776657032,19.12711580640923],[99.84740474742773,19.12724221708036],[99.84745012561737,19.127365386452233],[99.84747281471219,19.127391316846314],[99.84749874510626,19.12741724724039],[99.84755060589443,19.127417247240384],[99.84824100263677,19.12724869967888],[99.8483674133079,19.127219527985538],[99.84843223929309,19.12721952798555],[99.84849706527828,19.127219527985535],[99.84853271957014,19.127255182277406],[99.84856189126349,19.12734593865667],[99.8486656128398,19.128213796533494],[99.84874664532128,19.128605183419108],[99.8488017474087,19.128776972279873],[99.8488827798902,19.129007104527318],[99.84897677756874,19.12910677447955],[99.84903187965615,19.129194289559575],[99.84909022304282,19.129275322041067],[99.84914532513025,19.129356354522553],[99.8491971859184,19.12943738700406],[99.84931711399102,19.129557315076674],[99.84944271433733,19.12971856971484],[99.84958857280402,19.129887117276358],[99.84986732454037,19.13017559291048],[99.8499775287152,19.13030848618013],[99.85002857917854,19.130391949636056],[99.8500804399667,19.130450293022747],[99.85012257685707,19.130518360307196],[99.85013230075485,19.13058966889091],[99.85015823114894,19.13067394267167],[99.85015823114894,19.130742009956126],[99.85014850725115,19.13079711204354],[99.85011933555782,19.130848972831693],[99.8501290594556,19.13092028141541],[99.85013878335337,19.13098834869987],[99.85016795504671,19.131069381181362],[99.85022305713413,19.131176344056936],[99.85027410759747,19.131288979206218],[99.8503843117723,19.131350563892155],[99.85044589645824,19.131386218184012],[99.85050423984491,19.131457526767733],[99.8505204463412,19.131528835351443],[99.85056906583011,19.131600143935156],[99.85060472012196,19.131664969920358],[99.85065658091013,19.131729795905553],[99.85068899390272,19.131794621890748],[99.85073113079311,19.131869171773715],[99.85080568067607,19.13188861956927],[99.85088023055906,19.13193075645965],[99.85094505654425,19.13194696295595],[99.85100339993092,19.13201827153967],[99.85107146721538,19.132053925831524],[99.85114277579909,19.132105786619686],[99.85119463658725,19.132151164809326],[99.85124973867467,19.132151164809326],[99.85130159946283,19.132147923510058],[99.85140207973988,19.132105786619693],[99.85154388658249,19.13215035448451],[99.85188422300477,19.132263799958604],[99.85227317891595,19.13235455633788],[99.85241903738265,19.132377245432686],[99.85248710466709,19.132406417126035],[99.85250655246266,19.132451795315664],[99.85251303506118,19.13250365610382],[99.852535724156,19.13255551689198],[99.85258434364489,19.132594412483105],[99.8526880652212,19.13261386027866],[99.85283311336308,19.132603326056074],[99.85297897182977,19.13255794786643],[99.85309889990238,19.13249312188123],[99.85319289758091,19.132441261093067],[99.8533873755365,19.13237643510788],[99.853468408018,19.132347263414545],[99.85353647530245,19.1323505047138],[99.85357861219283,19.132363469910832],[99.85358509479136,19.132418571998254],[99.85366288597359,19.133238620710987],[99.85371150546248,19.13368267870958],[99.85382170963732,19.133718333001436],[99.85388653562251,19.133728056899216],[99.8539999810966,19.13367943741032],[99.85415232216181,19.133647024417712],[99.85440190220481,19.133608128826605],[99.85452831287596,19.133578957133267],[99.8548394776049,19.133523855045848],[99.85505664465529,19.133501165951028],[99.8551538836331,19.13350764854954],[99.85524301936273,19.133422564443975],[99.85525922585903,19.133396634049895],[99.85529812145015,19.133367462356563],[99.85534349963979,19.13332532546618],[99.85538563653017,19.13328967117432],[99.85542453212129,19.133270223378773],[99.85546991031092,19.13325725818173],[99.85554770149315,19.133244292984685],[99.85565142306947,19.13323456908692],[99.85574217944874,19.133241051685427],[99.85581997063098,19.13327022337877],[99.85594314000285,19.133273464678037],[99.85597879429471,19.13330911896989],[99.85602741378361,19.133338290663218],[99.85607927457177,19.13335773845878],[99.85612789406066,19.133383668852865],[99.85616354835251,19.13341932314472],[99.8562380982355,19.133451736137314],[99.85628671772439,19.133458218735843],[99.85636450890662,19.13347118393288],[99.85642933489183,19.133477666531387],[99.8564552652859,19.133513320823255],[99.85647471308145,19.13356194031215],[99.85649740217627,19.13363324889587],[99.85651684997184,19.133662420589207],[99.85652657386962,19.133717522676612],[99.85657843465778,19.133775866063292],[99.85662057154815,19.13383096815071],[99.85663029544592,19.133879587639605],[99.85664326064297,19.133937931026285],[99.85665946713927,19.133960620121112],[99.85666594973779,19.134018963507785],[99.85666919103704,19.134090272091495],[99.85667243233631,19.134135650281134],[99.85668539753334,19.134168063273723],[99.85671456922668,19.134197234967065],[99.85675994741632,19.134242613156708],[99.85680532560596,19.134291232645605],[99.8568507037956,19.134330128236723],[99.85690904718227,19.134362541229322],[99.85697063186821,19.134407919418965],[99.85699656226228,19.134417643316738],[99.85702897525488,19.13441440201748],[99.85707111214526,19.13437550642637],[99.85711000773638,19.134365782528583],[99.85713917942972,19.134378747725616],[99.85716186852454,19.134391712922653],[99.85722993580899,19.134440332411565],[99.85727531399863,19.13447922800268],[99.85729800309345,19.134495434498966],[99.85730448569197,19.13454081268861],[99.85730448569197,19.13457970827972],[99.85733365738531,19.134612121272326],[99.8573660703779,19.134618603870845],[99.85740172466976,19.13460239737454],[99.85748275715126,19.134582949578988],[99.85750787722051,19.13457646698047],[99.85756297930794,19.13454405398787],[99.85766670088425,19.134557019184907],[99.85774692304093,19.134592673476767],[99.85776961213575,19.134612121272315],[99.85779878382908,19.134612121272315],[99.85782471422317,19.134605638673804],[99.8578214729239,19.134531088790833],[99.85772747524537,19.134407919418944],[99.85769830355203,19.134307439141907],[99.85766589055943,19.13410728891261],[99.8590304775478,19.133194052846157],[99.85909206223374,19.13303279820799],[99.85898509935816,19.132974454821312],[99.85884896478926,19.132929076631676],[99.85872903671665,19.13284804415018],[99.85862207384108,19.132754046471646],[99.85855400655662,19.132653566194595],[99.86015682904059,19.132200594623033],[99.86020220723023,19.132093631747452],[99.86014386384355,19.13159123036219],[99.86046151117101,19.131526404376995],[99.86043558077694,19.131377304611046],[99.86115839051186,19.131260617837693],[99.86131073157708,19.131118000670252],[99.86218183075314,19.130994831298388],[99.86230500012502,19.13115041366285],[99.86236982611021,19.131293030830285],[99.8624281694969,19.131429165399194],[99.86246382378874,19.131591230362194],[99.86247354768653,19.131779225719253],[99.86248003028504,19.13189267119335],[99.86254080464617,19.132127665389696],[99.86287141717067,19.132049874207457],[99.8629167953603,19.1321827674771],[99.86321823619147,19.132108217594126],[99.86365257029227,19.132785649139418],[99.86393780462714,19.132688410161627],[99.86394023560159,19.132614670603473],[99.86462739104466,19.132465570837525],[99.8646241497454,19.132358607961958],[99.86467925183281,19.132336729191945],[99.86471490612468,19.132220042418588],[99.86482835159877,19.13214873383488],[99.86502607085362,19.13207742525116],[99.86511277560882,19.13239183127936],[99.86673585621315,19.131728175255923],[99.86668723672426,19.131592040687003],[99.86663213463684,19.131439699621794],[99.86652841306054,19.131297082454367],[99.86643117408273,19.131177964706563],[99.86726094669325,19.130682045919823],[99.86730956618214,19.13073714800724],[99.86754293972885,19.13057832434351],[99.86750404413773,19.130490809263495],[99.86824549134342,19.12985389395893],[99.86874141013016,19.12947466194554],[99.86853396697754,19.129254253595885],[99.86901043796873,19.129004673552867],[99.86897802497612,19.12894065789249],[99.86891968158945,19.128862866710257],[99.86889699249463,19.12880776462284],[99.86885809690351,19.12865866485689],[99.86862148205755,19.128309414861647],[99.86858582776568,19.128212175883856],[99.8685047952842,19.1280954891105],[99.86879327091832,19.12794719966937],[99.8709122703094,19.127124719982184],[99.87115212645463,19.12685245084436],[99.87106137007535,19.126503200849132],[99.87099006149164,19.12630224029502],[99.87087985731681,19.126036453755713],[99.87064324247085,19.125638584271574],[99.87059786428121,19.125153199707423],[99.87092199420718,19.124968445649614],[99.87092523550645,19.12487120667181],[99.8709122703094,19.12477720899328],[99.8709122703094,19.12467672871623],[99.87094792460127,19.124550318045102],[99.87099006149164,19.12445307906729],[99.87116185035241,19.124175137655765],[99.87120074594353,19.124064933480945],[99.87120074594353,19.123912592415735],[99.87112943735981,19.123722166084217],[99.87104516357905,19.1236022380116],[99.87097385499534,19.123504999033823],[99.87082151393014,19.123433690450103],[99.87068862066047,19.123479068639735],[99.87056869258787,19.12344017304862],[99.87045524711378,19.12342072525306],[99.8703482842382,19.12337858836268],[99.87021863226781,19.12328134938489],[99.87064000117158,19.123103888250416],[99.87050386660268,19.122782999623688],[99.87138468967652,19.122158239191368],[99.87177688688696,19.121925675969482],[99.87324195415239,19.121163970643426],[99.87319333466348,19.12098326820969],[99.87305071749606,19.120494642346276],[99.87307340659088,19.120079756041015],[99.87309285438643,19.1198245037243],[99.87317064556866,19.11924512148162],[99.87316092167089,19.11918353679568],[99.87311554348125,19.11899554143861],[99.87305071749606,19.118836717774883],[99.8729178242264,19.118671411512643],[99.87273955276711,19.118463968360007],[99.87255804000857,19.118192509547008],[99.872451077133,19.1180239619855],[99.8722403926811,19.1177427792747],[99.87211722330923,19.117613127304306],[99.87193895184994,19.11745430364059],[99.87170557830324,19.11728899737833],[99.87162454582175,19.1171949996998],[99.87157592633285,19.117075881952005],[99.87334162410463,19.11643815632264],[99.8743107725833,19.116050010736277],[99.87424918789736,19.115939806561446],[99.87420705100699,19.115855532780685],[99.8740773990366,19.115761535102152],[99.8740611925403,19.11567077872288],[99.87398340135806,19.11557029844583],[99.87397043616102,19.11546333557026],[99.87378325112877,19.115328011326156],[99.87370870124579,19.115302080932075],[99.87363091006355,19.11524049624614],[99.87358877317318,19.11516918766243],[99.87357580797614,19.115097879078704],[99.87358877317318,19.11503953569204],[99.87359849707096,19.11496822710832],[99.87363739266208,19.114909883721648],[99.87368601215098,19.114858022933493],[99.87378000982952,19.114776990451993],[99.87391290309917,19.11468299277346],[99.87415275924438,19.114547668529365],[99.87415600054365,19.114401810062674],[99.87407820936141,19.11434670797526],[99.87396476388732,19.114294847187097],[99.87383511191693,19.11426567549377],[99.87370545994654,19.11422677990264],[99.87358229057466,19.114181401713008],[99.87353367108577,19.114097127932244],[99.8734915341954,19.11399016505668],[99.87338133002055,19.113941545567787],[99.87294699591975,19.113738154039225],[99.87284003304417,19.11371222364515],[99.87270713977452,19.113666845455516],[99.87258721170191,19.11357284777696],[99.8724186641404,19.11338242144547],[99.87236356205298,19.113324078058778],[99.87229873606779,19.113178219592097],[99.87223066878333,19.11310042840986],[99.87217232539665,19.113093945811347],[99.87204915602479,19.11309718711061],[99.8719746061418,19.113071256716523],[99.87194219314921,19.113029119826145],[99.87190653885735,19.112977259037994],[99.87193246925143,19.11292539824984],[99.87198757133885,19.112818435374262],[99.87201026043367,19.11272443769573],[99.87207508641886,19.11259154442608],[99.87213018850628,19.112478909276806],[99.87204267342626,19.112375187700486],[99.8718611606677,19.11235249860567],[99.872039432127,19.11216126194934],[99.8717355603214,19.111821735851876],[99.87151515197172,19.11156891450962],[99.87117481554945,19.111222095488802],[99.87098763051719,19.111137821708052],[99.8708093590579,19.11104463435434],[99.87067970708752,19.110979808369144],[99.8705273660223,19.11090849978542],[99.8702939924756,19.110837191201703],[99.87005413633038,19.110775606515777],[99.8698661409733,19.11072698702688],[99.86967814561623,19.1107010566328],[99.86954525234658,19.110733469625398],[99.8693993938799,19.110769123917255],[99.86927298320876,19.110802347234667],[99.86908174655244,19.110786140738366],[99.86893588808574,19.110724556052432],[99.86888726859685,19.110666212665755],[99.86875761662645,19.110552767191667],[99.86866686024719,19.110416632622755],[99.86857934516716,19.110267532856803],[99.86848210618938,19.110131398287887],[99.86835245421898,19.1100179528138],[99.86844645189751,19.10993448935785],[99.86970002438625,19.109348624516638],[99.86961575060549,19.109189800852917],[99.87172178479955,19.10808289715569],[99.87161482192397,19.107920832192697],[99.87154675463951,19.107823593214917],[99.87148192865432,19.107690699945262],[99.87139441357431,19.10751566978523],[99.87128420939946,19.107338208650756],[99.87125503770613,19.1072215218774],[99.87116428132686,19.10713076549813],[99.87104435325425,19.107065939512925],[99.87087256439348,19.107049733016627],[99.87077532541568,19.10696870053513],[99.87073642982456,19.106900633250678],[99.87074291242308,19.10679367037511],[99.87072022332826,19.106667259703976],[99.87064891474455,19.10663484671138],[99.8705484344675,19.106615398915817],[99.87048684978156,19.106492229543942],[99.8703863695045,19.10643064485801],[99.8702405110378,19.106386076993193],[99.87031830222004,19.106113807855372],[99.87076884281716,19.106033585698686],[99.87081097970754,19.10560006192269],[99.87085635789718,19.105415307864874],[99.87084339270014,19.105246760303366],[99.87085635789718,19.10507254046815],[99.87092118388237,19.10489751030813],[99.87096980337127,19.10470303235254],[99.87092118388237,19.104275991175054],[99.87090821868533,19.104143097905407],[99.87084339270014,19.104036135029837],[99.87075587762013,19.103867587468308],[99.8706618799416,19.1037087638046],[99.87061001915343,19.10335627251009],[99.87049009108082,19.10295516172669],[99.87044471289119,19.102725029479245],[99.87049657367933,19.102333642593628],[99.87056788226306,19.10212944074026],[99.87073642982456,19.102035443061723],[99.87084987529866,19.102022477864686],[99.87084339270014,19.10216833633137],[99.87084015140087,19.102275299206948],[99.87163021809545,19.1021586124336],[99.872407319593,19.101957651879484],[99.8726731061323,19.101899308492804],[99.87349315484502,19.101717795734274],[99.8733505376776,19.100922056765985],[99.87331812468499,19.10071785491262],[99.87410576040512,19.100578479044444],[99.87409927780661,19.100526618256296],[99.8740344518214,19.10034510549774],[99.87394045414287,19.10022274645068],[99.87386914555915,19.100122266173628],[99.87377190658137,19.100050957589918],[99.87367142630431,19.10002502719584],[99.87357418732651,19.099992614203234],[99.87347694834872,19.09980137754691],[99.8734380527576,19.09969117337207],[99.87348018964798,19.099616623489098],[99.87371923546839,19.09957205562428],[99.8738553700373,19.099539642631672],[99.87401419370103,19.099533160033165],[99.8741859825618,19.099500747040565],[99.87416329346698,19.098840332316374],[99.87410495008031,19.098600476171157],[99.87405308929215,19.098196124088496],[99.87407577838697,19.097827426297695],[99.87411143267883,19.097383368299102],[99.8741373630729,19.096862329443077],[99.87405308929215,19.09630239499595],[99.87398178070843,19.09581376913255],[99.87395585031436,19.09527571345542],[99.87402067629955,19.094887567869055],[99.87411467397808,19.09487136137276],[99.87414384567143,19.094634746526793],[99.87395585031436,19.094165568458937],[99.87396233291288,19.09396460790482],[99.87387481783286,19.093732044682934],[99.87378406145359,19.093472740742154],[99.87403688279585,19.093440327749555],[99.87456845587445,19.093440327749555],[99.87522238800013,19.093712596887375],[99.87658292336442,19.093142938542464],[99.87691353588892,19.09302949306837],[99.8768908467941,19.09295818448466],[99.87680981431261,19.09281880861649],[99.87676767742222,19.092372319643452],[99.87668664494073,19.091750800510383],[99.87668016234221,19.091384533694026],[99.87667043844444,19.09069818857576],[99.87663478415257,19.090335163058665],[99.87656671686813,19.089856261093033],[99.8777911176635,19.08944785738629],[99.87823841696137,19.08948351167815],[99.88068721855214,19.089162623051436],[99.8813516849004,19.089097797066245],[99.8813735636704,19.08913993395661],[99.88174955438454,19.09034245598201],[99.88259553349134,19.089833571998216],[99.88355414774743,19.089112382912912],[99.88330780900368,19.0885970163306],[99.88327215471182,19.08841631389687],[99.8833629110911,19.08830286842277],[99.88356063034594,19.08820887074424],[99.88368379971782,19.08813432086126],[99.8837421431045,19.08802411668644],[99.88373890180523,19.087943084204934],[99.88372917790745,19.08782963873084],[99.88372917790745,19.087693504161937],[99.8837259366082,19.087563852191547],[99.88382317558599,19.087450406717444],[99.88388151897267,19.08735640903891],[99.88398524054898,19.087252687462605],[99.88406627303047,19.087184620178142],[99.88416351200827,19.08714248328777],[99.88422509669421,19.087097915422948],[99.88431261177422,19.086703287238063],[99.88487983914469,19.08671949373436],[99.88492197603506,19.086528257078033],[99.88479880666318,19.08628840093282],[99.88439040295646,19.08513449839633],[99.88429316397865,19.084972433433336],[99.88416756363235,19.084879246079606],[99.88393743138491,19.08432255293174],[99.88376240122487,19.08389551175426],[99.88358412976558,19.083419040763076],[99.88346420169297,19.083183236241915],[99.88333130842332,19.083017929979675],[99.88323082814627,19.082855865016683],[99.88311495169773,19.08249689112366],[99.88307929740587,19.082415858642165],[99.88305660831105,19.082270000175477],[99.88303067791698,19.082120900409528],[99.88291074984436,19.081988007139874],[99.8827778565747,19.081832424775403],[99.8825931025169,19.08168332500945],[99.88246345054651,19.081505863874973],[99.88217497491239,19.081091787894543],[99.88188649927827,19.080599110407046],[99.88198292793125,19.080437855768878],[99.8821158212009,19.080113725842896],[99.88230705785722,19.079660754271337],[99.88259877479061,19.079152680612353],[99.88266035947655,19.079026269941235],[99.88282566573879,19.07870862261377],[99.88284835483361,19.078556281548565],[99.88289049172398,19.078423388278907],[99.88299097200104,19.07786345383178],[99.88303959148993,19.077668975876186],[99.88301690239513,19.077500428314675],[99.88296828290622,19.077225728202418],[99.88277380495063,19.076743584937514],[99.88276732235212,19.07660745036861],[99.88274787455656,19.076448626704874],[99.88274787455656,19.076218494457432],[99.88270573766619,19.07601753390333],[99.88259877479061,19.075848986341814],[99.88257608569579,19.075798746203283],[99.88215795809127,19.074959249695002],[99.88182410426752,19.074265611653402],[99.88203478871941,19.0742494051571],[99.8821482341935,19.074242922558582],[99.88221954277721,19.074249405157104],[99.88229409266019,19.07425912905489],[99.88254286237837,19.07427533555118],[99.88287671620213,19.07427857685044],[99.8833467045948,19.074255887755626],[99.88352821735336,19.074265611653402],[99.88375753927599,19.074259129054887],[99.88391960423897,19.07426237035415],[99.88408815180048,19.074288300748226],[99.88444793601832,19.074323955040082],[99.88468455086429,19.07434340283564],[99.88511483334102,19.07437581582824],[99.88522503751585,19.074340161536384],[99.88536117208477,19.07427533555117],[99.88550703055147,19.074304507244523],[99.8856075108285,19.074456848309737],[99.88573068020038,19.07462215457198],[99.8858830212656,19.07478097823572],[99.8860353623308,19.074920354103885],[99.88612936000933,19.074907388906848],[99.8864526796105,19.07478989180868],[99.88651102299718,19.074880648187946],[99.88652722949348,19.075042713150943],[99.88654019469053,19.07518208901911],[99.88659205547867,19.075340912682844],[99.88666984666091,19.075490012448792],[99.88672819004759,19.07561318182066],[99.88687080721502,19.075628577992152],[99.88690970280614,19.07563830188993],[99.88697452879133,19.07565774968548],[99.88701990698097,19.075709610473645],[99.8871463176521,19.07596243181591],[99.887194937141,19.076081549563703],[99.8872597631262,19.07622416673113],[99.88721762623581,19.07629223401559],[99.88717224804618,19.07637002519784],[99.8871139046595,19.07645429897859],[99.88713335245507,19.076558020554895],[99.8871301111558,19.07671036162011],[99.8871625241484,19.0768562200868],[99.88719169584174,19.07703449154609],[99.8872759696225,19.077318915556134],[99.88730838261509,19.077416154533935],[99.88735376080473,19.077516634810983],[99.88744775848326,19.077646286781373],[99.88751906706698,19.077814834342885],[99.88756768655587,19.078064414385878],[99.88756120395736,19.078207031553312],[99.88758389305217,19.078336683523705],[99.88763251254109,19.078485783289658],[99.88782050789816,19.079218316922375],[99.88788533388335,19.07958134243947],[99.88802146845227,19.07991195496397],[99.88847525034863,19.07974989000098],[99.88872158909238,19.07962672062911],[99.88895496263909,19.07941279487796],[99.8891883361858,19.079161594185326],[99.8894865357177,19.07866243409932],[99.89058695681639,19.077153609293884],[99.89099536052312,19.077574978197653],[99.89146859021506,19.076913753148656],[99.891779754944,19.07645348865376],[99.89247177233597,19.07519100259207],[99.893645122668,19.075294724168387],[99.89372291385024,19.075307689365427],[99.89378125723692,19.07535306755506],[99.89382015282804,19.07548920212397],[99.89398870038954,19.075910571027748],[99.89421559133773,19.076403248515227],[99.89455268646076,19.0763578703256],[99.89507129434232,19.076318974734477],[99.89513612032752,19.076390283318194],[99.89518149851715,19.076565313478227],[99.89520742891123,19.0767533088353],[99.89522687670679,19.076850547813088],[99.89530466788902,19.076805169623448],[99.89540190686682,19.076701448047142],[99.89553804143573,19.076526417887113],[99.89562879781501,19.076331939931517],[99.89565472820908,19.076267113946326],[99.89577141498243,19.076195805362605],[99.89590106695283,19.076092083786286],[99.8959269973469,19.075910571027748],[99.89585568876319,19.075644784488446],[99.89561583261796,19.07513427985503],[99.89557693702685,19.074926836702396],[99.89546673285201,19.074589741579373],[99.89540838946535,19.07440822882083],[99.89544728505646,19.074168372675604],[99.89553804143573,19.074012790311137],[99.89563528041353,19.07389124158889],[99.89571955419427,19.073794002611095],[99.89571955419427,19.07362545504959],[99.89575844978539,19.073482837882153],[99.89581031057355,19.07328835992657],[99.8958232757706,19.073067951576906],[99.89592051474838,19.072756786847965],[99.89609554490842,19.072259247411576],[99.89631595325808,19.071520231180347],[99.89649746601663,19.0711004829262],[99.89656229200183,19.070912487569142],[99.89662711798702,19.07071152701504],[99.8967178743663,19.07049111866537],[99.89687345673076,19.070348501497936],[99.89711979547451,19.070066508462332],[99.89724944744489,19.069884995703788],[99.89735316902122,19.069768308930435],[99.89737909941529,19.06965162215708],[99.89737909941529,19.06940528341334],[99.89745689059752,19.069301561837023],[99.89758654256791,19.069301561837026],[99.89781991611461,19.06928859663998],[99.89797549847908,19.069275631442952],[99.89810515044948,19.06921080545775],[99.89813108084356,19.069094118684404],[99.89813108084356,19.06887371033473],[99.8980143940702,19.068666267182106],[99.89789770729685,19.068523650014672],[99.89780695091758,19.068316206862047],[99.89772915973535,19.068082833315348],[99.89779398572054,19.067736014294542],[99.89779398572054,19.067619327521193],[99.89767729894719,19.067502640747833],[99.89757357737088,19.067398919171517],[99.89758654256791,19.067295197595215],[99.8977810205235,19.067217406412976],[99.89794956808501,19.067100719639615],[99.89798846367613,19.066854380895876],[99.89798846367613,19.06662100734917],[99.89813108084356,19.06643949459062],[99.89802735926725,19.06614129505871],[99.89789770729685,19.065894956314978],[99.89822183722283,19.065622687177147],[99.89853300195178,19.06537634843341],[99.89859782793697,19.065194835674863],[99.89898678384814,19.064835051457013],[99.89899974904519,19.064575747516237],[99.89906457503038,19.06434237396953],[99.8992071921978,19.064134930816905],[99.89941463535044,19.06404417443763],[99.89968690448826,19.063810800890927],[99.89953132212379,19.063175506236007],[99.89894788825703,19.061801195349855],[99.89806625485836,19.060533847339272],[99.8970549694893,19.059198432044226],[99.89585244746392,19.057671780092864],[99.89493191847414,19.056362295191896],[99.89363539877023,19.054498548117536],[99.89293527813011,19.053218234909917],[99.89242963544558,19.05290707018097],[99.89194992315512,19.052168053949732],[99.8920406795344,19.0514938637037],[99.89192399276105,19.05096229062509],[99.89147345216394,19.0502913416783],[99.89124007861723,19.049565290644107],[99.89066960994751,19.048929995989198],[99.89006024568667,19.048761448427687],[99.8893730902436,19.048476214092826],[99.88867296960348,19.048190979757972],[99.88850442204196,19.047944641014215],[99.88801174455448,19.04757189159934],[99.88738941509659,19.047182935688166],[99.88668929445647,19.047014388126655],[99.88628737334827,19.046910666550342],[99.88554835711703,19.046586536624364],[99.88453707174797,19.046054963545746],[99.88396660307825,19.045176571446344],[99.88342530610187,19.0445672071855],[99.88311414137293,19.044307903244725],[99.88279001144694,19.043880051742427],[99.88289373302325,19.043439235043103],[99.883140071767,19.04294655755561],[99.88329565413147,19.04214271533918],[99.88312710656996,19.04132914922497],[99.88258256829432,19.03995483833882],[99.88192458454458,19.038674525131196],[99.8811077771311,19.03749469220063],[99.8800446309739,19.036642230495296],[99.87896851961965,19.03603286623446],[99.87787944306835,19.03525819571137],[99.87762013912757,19.034726622632764],[99.87732193959567,19.033585685293318],[99.87777572149204,19.03300225142655],[99.87841101614696,19.03237019807089],[99.87859252890551,19.031877520583404],[99.87859252890551,19.031281121519594],[99.87848880732919,19.030905130805454],[99.87824246858546,19.030334662135733],[99.87755531314238,19.029699367480813],[99.8771177377423,19.028808010184374],[99.87700105096894,19.028276437105756],[99.87692325978671,19.027848585603472],[99.87667692104297,19.02756335126861],[99.87631389552587,19.02757631646565],[99.87576935725022,19.02755038607157],[99.87551005330944,19.027381838510063],[99.87478400227525,19.027200325751515],[99.87396719486178,19.02736887331302],[99.8732800394187,19.027537420874527],[99.8720224153059,19.027200325751515],[99.87141629234432,19.026915091416644],[99.8712736751769,19.02660392668771],[99.8712477447828,19.026227935973573],[99.87131257076801,19.025838980062392],[99.87115698840354,19.025398163363068],[99.87097547564498,19.025099963831167],[99.86967895594107,19.024827694693332],[99.86817499308452,19.024633216737755],[99.86641496758645,19.02393309609764],[99.86561112537002,19.023492279398308],[99.86484617874471,19.023492279398305],[99.86360151982895,19.023712687747977],[99.86265506044509,19.023790478930206],[99.86114137369077,19.02375158333909],[99.86013008832171,19.023725652945018],[99.85909287255858,19.023790478930206],[99.8582760651451,19.024101643659144],[99.85802972640137,19.02432205200882],[99.85796490041616,19.02466887102962],[99.85791303962802,19.025148583320068],[99.85770559647538,19.025265270093417],[99.8573814665494,19.025304165684535],[99.85703140622934,19.02543381765492],[99.85674617189449,19.025796843172024],[99.85631832039219,19.026289520659518],[99.8559941904662,19.026898884920353],[99.85591639928397,19.027547144772303],[99.85576405821877,19.027971754975347],[99.8553102763224,19.028140302536855],[99.85489539001713,19.028192163325006],[99.85429899095334,19.028231058916134],[99.85335253156947,19.028231058916123],[99.85235421139745,19.02828291970429],[99.85177401882996,19.028399606477638],[99.8512943065395,19.028581119236197],[99.85093128102241,19.02854222364506],[99.85042563833788,19.02846443246284],[99.84997185644151,19.028218093719094],[99.84940138777179,19.027945824581263],[99.84879202351094,19.02788099859608],[99.84835444811087,19.028036580960546],[99.84780990983522,19.028386641280598],[99.84752467550037,19.02852925844803],[99.84710978919512,19.02859408443323],[99.84669490288985,19.028425536871715],[99.84600774744678,19.027984720172384],[99.84550210476225,19.0275957642612],[99.84480198412213,19.02710308677372],[99.84454268018135,19.026843782832938],[99.8440629678909,19.02681785243886],[99.84301278693073,19.026882678424048],[99.84227377069949,19.026973434803324],[99.84104207698077,19.02698640000037],[99.84025119996139,19.027141982364842],[99.83923991459233,19.027051225985566],[99.83799525567656,19.02714198236484],[99.83570365709988,19.02733646032043],[99.83535359677983,19.02681785243886],[99.83517208402128,19.026895643621096],[99.83526284040056,19.027258669138195],[99.8348479540953,19.027530938276012],[99.8338885295144,19.027842103004957],[99.83353846919434,19.028269954507252],[99.83049164789014,19.030885683009902],[99.83001193559969,19.031741386014485],[99.82997304000857,19.032490126143497],[99.83027123954047,19.032943908039876],[99.83054350867829,19.033618098285913],[99.83095839498354,19.034253392940833],[99.8311399077421,19.034875722398702],[99.83121769892433,19.035355434689155],[99.83120473372729,19.036094450920395],[99.83125659451545,19.037193251369473],[99.83195671515556,19.037854476418463],[99.8328642789483,19.038463840679302],[99.83296800052462,19.038904657378637],[99.83294207013054,19.03959829542024],[99.83171037641182,19.04045399842482],[99.83024530914639,19.04077812835081],[99.82979476854928,19.040778128350805],[99.82376919322532,19.044405142222523],[99.82370436724013,19.044884854512972],[99.82326355054079,19.04562062944494],[99.82331541132895,19.046009585356114],[99.82314686376743,19.046372610873213],[99.822343021551,19.0466967407992],[99.82098167586189,19.04764320018306],[99.82024590092992,19.04797705400681],[99.82060892644702,19.049001304572908],[99.82067375243221,19.049416190878162],[99.82088119558485,19.051568413586672],[99.82072561322038,19.051892543512647],[99.82006438817137,19.052498666474232],[99.81985694501874,19.053406230266972],[99.81880676405856,19.054521237212345],[99.81876786846745,19.05555845297547],[99.81920868516679,19.056777181497164],[99.81942909351645,19.057879223245493],[99.81951012599795,19.058845130424917],[99.81947123040683,19.05973972902063],[99.81930268284532,19.0607250839956],[99.8183691886585,19.061762299758733],[99.81787975247026,19.062047534093598],[99.81688143229825,19.062695793945558],[99.81567566897361,19.062475385595896],[99.81526078266835,19.062734689536676],[99.81461252281639,19.061567821803145],[99.81409391493483,19.060621362419287],[99.81357854835252,19.059691109531723],[99.81269691495386,19.058757615344902],[99.81195789872262,19.05851127660115],[99.81134853446179,19.058459415813],[99.81045393586608,19.058342729039644],[99.80946858089109,19.0583945898278],[99.80819799158125,19.058290868251493],[99.80703436514699,19.058459415813],[99.80567301945787,19.058563137389317],[99.80501179440888,19.058433485418924],[99.80444132573915,19.05817418147814],[99.8040264394339,19.057642608399526],[99.80253868307365,19.056670218621594],[99.80170891046315,19.056540566651204],[99.79947889657241,19.056527601454157],[99.7989635299901,19.05632015830154],[99.79838009612334,19.05584044601109],[99.79808189659144,19.05529590773544],[99.7974077063454,19.05451799591309],[99.79639642097634,19.053766014484815],[99.79564443954807,19.053312232588443],[99.79529437922801,19.053312232588446],[99.79450350220861,19.053325197785483],[99.79385524235666,19.053753049287778],[99.79367372959811,19.054258691972308],[99.79312919132246,19.054673578277555],[99.79221190363194,19.05499770820354],[99.79091538392802,19.05501067340058],[99.7899818897412,19.055658933252538],[99.78667900579548,19.056307193104495],[99.78438416591953,19.054271657169345],[99.78394334922021,19.05565893325253],[99.78335019145567,19.05643360377563],[99.78189808938727,19.057107794021665],[99.78214442813102,19.060517640842974],[99.78099052559453,19.060828805571905],[99.77983662305805,19.06048846914963],[99.77524694330617,19.062144773071395],[99.77320168347325,19.063749216204993],[99.77263121480351,19.065097596697072],[99.77215150251307,19.067557742835252],[99.7728905187443,19.069784515426733],[99.77309796189692,19.071210687101047],[99.7730590663058,19.07251693070274],[99.77423889923638,19.07447467545566],[99.77413517766006,19.07613097937742],[99.77146758836925,19.077761352905096],[99.76909495731108,19.07777431810214],[99.76729279492262,19.081855113870215],[99.76598331002167,19.0831224618808],[99.76520539819933,19.085987770426453],[99.76516650260821,19.08768296993934],[99.76353288778127,19.090749239039106],[99.76384405251021,19.09257733182163],[99.76514057221412,19.095802424585123],[99.76512760701709,19.096800744757154],[99.76501092024374,19.097021153106816],[99.76431079960362,19.098752006911543],[99.76447934716512,19.10096905560525],[99.76398666967764,19.102265575309158],[99.76335137502272,19.10319906949598]]]},"properties":{"name_th":"ขอบเขตตำบลแม่นาเรือ","area_m2":97901156,"area_rai":61188}}]}